start=new Date('2022-06-17T00:00:00.000Z').valueOf();
sats=[{"CLASSIFICATION_TYPE":"U","OBJECT_NAME":"STARLINK-3645","CENTER_NAME":"EARTH","SEMIMAJOR_AXIS":"6917.939","ELEMENT_SET_NO":"999","DECAY_DATE":null,"TLE_LINE1":"1 51986U 22025AG  22167.08334491  .00057564  00000-0  36075-2 0  9990","TIME_SYSTEM":"UTC","LAUNCH_DATE":"2022-03-09","RCS_SIZE":"LARGE","SITE":"AFETR","RA_OF_ASC_NODE":"36.0875","INCLINATION":"53.2186","REV_AT_EPOCH":"130","MEAN_MOTION_DOT":"0.00057564","OBJECT_TYPE":"PAYLOAD","REF_FRAME":"TEME","GP_ID":"206291398","OBJECT_ID":"2022-025AG","PERIAPSIS":"538.858","MEAN_ELEMENT_THEORY":"SGP4","MEAN_ANOMALY":"341.3267","ARG_OF_PERICENTER":"61.7599","NORAD_CAT_ID":"51986","EPHEMERIS_TYPE":"0","TLE_LINE2":"2 51986  53.2186  36.0875 0001368  61.7599 341.3267 15.08820695  1304","ECCENTRICITY":"0.00013680","MEAN_MOTION_DDOT":"0.0000000000000","MEAN_MOTION":"15.08820695","FILE":"3497002","APOAPSIS":"540.751","COUNTRY_CODE":"US","BSTAR":"0.00360750000000","PERIOD":"95.439","EPOCH":"2022-06-16T02:00:01.000224"},{"TLE_LINE2":"2 51987  53.2175  36.0866 0001641  55.3288 267.7629 15.08836153  1300","ECCENTRICITY":"0.00016410","MEAN_MOTION_DDOT":"0.0000000000000","REF_FRAME":"TEME","OBJECT_TYPE":"PAYLOAD","PERIAPSIS":"538.622","OBJECT_ID":"2022-025AH","GP_ID":"206291601","ARG_OF_PERICENTER":"55.3288","MEAN_ANOMALY":"267.7629","MEAN_ELEMENT_THEORY":"SGP4","EPHEMERIS_TYPE":"0","NORAD_CAT_ID":"51987","COUNTRY_CODE":"US","FILE":"3497002","APOAPSIS":"540.892","BSTAR":"0.00206690000000","EPOCH":"2022-06-16T02:00:01.000224","PERIOD":"95.438","MEAN_MOTION":"15.08836153","DECAY_DATE":null,"ELEMENT_SET_NO":"999","TLE_LINE1":"1 51987U 22025AH  22167.08334491  .00032757  00000-0  20669-2 0  9990","TIME_SYSTEM":"UTC","LAUNCH_DATE":"2022-03-09","CLASSIFICATION_TYPE":"U","OBJECT_NAME":"STARLINK-3644","CENTER_NAME":"EARTH","SEMIMAJOR_AXIS":"6917.892","RA_OF_ASC_NODE":"36.0866","INCLINATION":"53.2175","MEAN_MOTION_DOT":"0.00032757","REV_AT_EPOCH":"130","RCS_SIZE":"LARGE","SITE":"AFETR"},{"TIME_SYSTEM":"UTC","LAUNCH_DATE":"2022-03-09","TLE_LINE1":"1 51988U 22025AJ  22167.08334491  .00049725  00000-0  31218-2 0  9996","ELEMENT_SET_NO":"999","DECAY_DATE":null,"SEMIMAJOR_AXIS":"6917.928","CENTER_NAME":"EARTH","OBJECT_NAME":"STARLINK-3640","CLASSIFICATION_TYPE":"U","MEAN_MOTION_DOT":"0.00049725","REV_AT_EPOCH":"130","INCLINATION":"53.2186","RA_OF_ASC_NODE":"36.0865","SITE":"AFETR","RCS_SIZE":"LARGE","MEAN_MOTION_DDOT":"0.0000000000000","ECCENTRICITY":"0.00014960","TLE_LINE2":"2 51988  53.2186  36.0865 0001496  59.9747   3.1137 15.08824526  1307","NORAD_CAT_ID":"51988","EPHEMERIS_TYPE":"0","MEAN_ANOMALY":"3.1137","ARG_OF_PERICENTER":"59.9747","MEAN_ELEMENT_THEORY":"SGP4","GP_ID":"206291498","PERIAPSIS":"538.758","OBJECT_ID":"2022-025AJ","OBJECT_TYPE":"PAYLOAD","REF_FRAME":"TEME","PERIOD":"95.439","EPOCH":"2022-06-16T02:00:01.000224","BSTAR":"0.00312180000000","FILE":"3497002","APOAPSIS":"540.828","COUNTRY_CODE":"US","MEAN_MOTION":"15.08824526"},{"RCS_SIZE":"LARGE","SITE":"AFETR","INCLINATION":"53.2182","RA_OF_ASC_NODE":"36.0878","MEAN_MOTION_DOT":"0.00039009","REV_AT_EPOCH":"130","OBJECT_NAME":"STARLINK-3642","CLASSIFICATION_TYPE":"U","SEMIMAJOR_AXIS":"6917.901","CENTER_NAME":"EARTH","ELEMENT_SET_NO":"999","DECAY_DATE":null,"TIME_SYSTEM":"UTC","LAUNCH_DATE":"2022-03-09","TLE_LINE1":"1 51989U 22025AK  22167.08334491  .00039009  00000-0  24560-2 0  9993","MEAN_MOTION":"15.08833127","FILE":"3497002","APOAPSIS":"540.898","COUNTRY_CODE":"US","PERIOD":"95.438","EPOCH":"2022-06-16T02:00:01.000224","BSTAR":"0.00245600000000","GP_ID":"206291698","PERIAPSIS":"538.635","OBJECT_ID":"2022-025AK","OBJECT_TYPE":"PAYLOAD","REF_FRAME":"TEME","NORAD_CAT_ID":"51989","EPHEMERIS_TYPE":"0","MEAN_ANOMALY":"291.7678","MEAN_ELEMENT_THEORY":"SGP4","ARG_OF_PERICENTER":"51.3074","TLE_LINE2":"2 51989  53.2182  36.0878 0001636  51.3074 291.7678 15.08833127  1305","MEAN_MOTION_DDOT":"0.0000000000000","ECCENTRICITY":"0.00016360"},{"OBJECT_NAME":"STARLINK-3657","CLASSIFICATION_TYPE":"U","SEMIMAJOR_AXIS":"6861.991","CENTER_NAME":"EARTH","DECAY_DATE":null,"ELEMENT_SET_NO":"999","LAUNCH_DATE":"2022-03-09","TIME_SYSTEM":"UTC","TLE_LINE1":"1 51990U 22025AL  22167.08334491 -.00724661  00000-0 -28656-1 0  9991","RCS_SIZE":"LARGE","SITE":"AFETR","INCLINATION":"53.2169","RA_OF_ASC_NODE":"16.9549","MEAN_MOTION_DOT":"-0.00724661","REV_AT_EPOCH":"130","PERIAPSIS":"483.000","OBJECT_ID":"2022-025AL","GP_ID":"206291053","REF_FRAME":"TEME","OBJECT_TYPE":"PAYLOAD","EPHEMERIS_TYPE":"0","NORAD_CAT_ID":"51990","MEAN_ANOMALY":"19.3441","MEAN_ELEMENT_THEORY":"SGP4","ARG_OF_PERICENTER":"91.6787","TLE_LINE2":"2 51990  53.2169  16.9549 0001247  91.6787  19.3441 15.27311340  1301","MEAN_MOTION_DDOT":"0.0000000000000","ECCENTRICITY":"0.00012470","MEAN_MOTION":"15.27311340","COUNTRY_CODE":"US","APOAPSIS":"484.711","FILE":"3497002","EPOCH":"2022-06-16T02:00:01.000224","PERIOD":"94.283","BSTAR":"-0.02865600000000"},{"APOAPSIS":"541.009","FILE":"3497002","COUNTRY_CODE":"US","BSTAR":"0.00228760000000","PERIOD":"95.438","EPOCH":"2022-06-16T02:00:01.000224","MEAN_MOTION":"15.08833485","TLE_LINE2":"2 51991  53.2190  36.0872 0001798  47.2214 335.8643 15.08833485  1309","ECCENTRICITY":"0.00017980","MEAN_MOTION_DDOT":"0.0000000000000","OBJECT_TYPE":"PAYLOAD","REF_FRAME":"TEME","GP_ID":"206291255","PERIAPSIS":"538.521","OBJECT_ID":"2022-025AM","MEAN_ANOMALY":"335.8643","ARG_OF_PERICENTER":"47.2214","MEAN_ELEMENT_THEORY":"SGP4","NORAD_CAT_ID":"51991","EPHEMERIS_TYPE":"0","RA_OF_ASC_NODE":"36.0872","INCLINATION":"53.2190","REV_AT_EPOCH":"130","MEAN_MOTION_DOT":"0.00036301","RCS_SIZE":"LARGE","SITE":"AFETR","ELEMENT_SET_NO":"999","DECAY_DATE":null,"TLE_LINE1":"1 51991U 22025AM  22167.08334491  .00036301  00000-0  22876-2 0  9996","TIME_SYSTEM":"UTC","LAUNCH_DATE":"2022-03-09","CLASSIFICATION_TYPE":"U","OBJECT_NAME":"STARLINK-3652","CENTER_NAME":"EARTH","SEMIMAJOR_AXIS":"6917.900"},{"EPHEMERIS_TYPE":"0","NORAD_CAT_ID":"51992","MEAN_ANOMALY":"49.8380","MEAN_ELEMENT_THEORY":"SGP4","ARG_OF_PERICENTER":"94.9459","OBJECT_ID":"2022-025AN","PERIAPSIS":"481.198","GP_ID":"206291153","REF_FRAME":"TEME","OBJECT_TYPE":"PAYLOAD","MEAN_MOTION_DDOT":"0.0000000000000","ECCENTRICITY":"0.00012850","TLE_LINE2":"2 51992  53.2171  16.9747 0001285  94.9459  49.8380 15.27904376  1307","MEAN_MOTION":"15.27904376","EPOCH":"2022-06-16T02:00:01.000224","PERIOD":"94.247","BSTAR":"-0.02809900000000","COUNTRY_CODE":"US","FILE":"3497002","APOAPSIS":"482.962","SEMIMAJOR_AXIS":"6860.215","CENTER_NAME":"EARTH","OBJECT_NAME":"STARLINK-3643","CLASSIFICATION_TYPE":"U","LAUNCH_DATE":"2022-03-09","TIME_SYSTEM":"UTC","TLE_LINE1":"1 51992U 22025AN  22167.08334491 -.00723673  00000-0 -28099-1 0  9996","DECAY_DATE":null,"ELEMENT_SET_NO":"999","SITE":"AFETR","RCS_SIZE":"LARGE","REV_AT_EPOCH":"130","MEAN_MOTION_DOT":"-0.00723673","INCLINATION":"53.2171","RA_OF_ASC_NODE":"16.9747"},{"ECCENTRICITY":"0.00016570","MEAN_MOTION_DDOT":"0.0000000000000","TLE_LINE2":"2 51993  53.2213  36.0802 0001657  53.4135  29.6949 15.08813191  1304","MEAN_ELEMENT_THEORY":"SGP4","MEAN_ANOMALY":"29.6949","ARG_OF_PERICENTER":"53.4135","EPHEMERIS_TYPE":"0","NORAD_CAT_ID":"51993","REF_FRAME":"TEME","OBJECT_TYPE":"PAYLOAD","OBJECT_ID":"2022-025AP","PERIAPSIS":"538.681","GP_ID":"206291351","BSTAR":"0.00372880000000","EPOCH":"2022-06-16T02:00:01.000224","PERIOD":"95.439","COUNTRY_CODE":"US","FILE":"3497002","APOAPSIS":"540.974","MEAN_MOTION":"15.08813191","TLE_LINE1":"1 51993U 22025AP  22167.08334491  .00059513  00000-0  37288-2 0  9991","LAUNCH_DATE":"2022-03-09","TIME_SYSTEM":"UTC","DECAY_DATE":null,"ELEMENT_SET_NO":"999","CENTER_NAME":"EARTH","SEMIMAJOR_AXIS":"6917.962","CLASSIFICATION_TYPE":"U","OBJECT_NAME":"STARLINK-3648","REV_AT_EPOCH":"130","MEAN_MOTION_DOT":"0.00059513","RA_OF_ASC_NODE":"36.0802","INCLINATION":"53.2213","SITE":"AFETR","RCS_SIZE":"LARGE"},{"GP_ID":"206291399","PERIAPSIS":"480.595","OBJECT_ID":"2022-025AQ","OBJECT_TYPE":"PAYLOAD","REF_FRAME":"TEME","NORAD_CAT_ID":"51994","EPHEMERIS_TYPE":"0","MEAN_ANOMALY":"68.1401","MEAN_ELEMENT_THEORY":"SGP4","ARG_OF_PERICENTER":"87.7128","TLE_LINE2":"2 51994  53.2171  16.9812 0001300  87.7128  68.1401 15.28102488  1306","MEAN_MOTION_DDOT":"0.0000000000000","ECCENTRICITY":"0.00013000","MEAN_MOTION":"15.28102488","FILE":"3497002","APOAPSIS":"482.379","COUNTRY_CODE":"US","PERIOD":"94.235","EPOCH":"2022-06-16T02:00:01.000224","BSTAR":"-0.02793900000000","OBJECT_NAME":"STARLINK-3647","CLASSIFICATION_TYPE":"U","SEMIMAJOR_AXIS":"6859.622","CENTER_NAME":"EARTH","ELEMENT_SET_NO":"999","DECAY_DATE":null,"TIME_SYSTEM":"UTC","LAUNCH_DATE":"2022-03-09","TLE_LINE1":"1 51994U 22025AQ  22167.08334491 -.00723925  00000-0 -27939-1 0  9990","RCS_SIZE":"LARGE","SITE":"AFETR","INCLINATION":"53.2171","RA_OF_ASC_NODE":"16.9812","REV_AT_EPOCH":"130","MEAN_MOTION_DOT":"-0.00723925"},{"INCLINATION":"53.2170","RA_OF_ASC_NODE":"16.9615","REV_AT_EPOCH":"130","MEAN_MOTION_DOT":"-0.00724373","RCS_SIZE":"LARGE","SITE":"AFETR","DECAY_DATE":null,"ELEMENT_SET_NO":"999","TIME_SYSTEM":"UTC","LAUNCH_DATE":"2022-03-09","TLE_LINE1":"1 51995U 22025AR  22167.08334491 -.00724373  00000-0 -28471-1 0  9991","OBJECT_NAME":"STARLINK-3636","CLASSIFICATION_TYPE":"U","SEMIMAJOR_AXIS":"6861.399","CENTER_NAME":"EARTH","COUNTRY_CODE":"US","FILE":"3497002","APOAPSIS":"484.134","EPOCH":"2022-06-16T02:00:01.000224","PERIOD":"94.271","BSTAR":"-0.02847100000000","MEAN_MOTION":"15.27509025","TLE_LINE2":"2 51995  53.2170  16.9615 0001268  93.8582  28.5105 15.27509025  1300","MEAN_MOTION_DDOT":"0.0000000000000","ECCENTRICITY":"0.00012680","OBJECT_ID":"2022-025AR","PERIAPSIS":"482.394","GP_ID":"206291602","REF_FRAME":"TEME","OBJECT_TYPE":"PAYLOAD","EPHEMERIS_TYPE":"0","NORAD_CAT_ID":"51995","ARG_OF_PERICENTER":"93.8582","MEAN_ANOMALY":"28.5105","MEAN_ELEMENT_THEORY":"SGP4"}];
